{
  "type": "FeatureCollection",
  "features": [
    {
      "type": "Feature",
      "properties": {
        "norad_id": 34554,
        "name": "COSMOS 2251 DEB",
        "group": "cosmos-2251-debris",
        "lat": -71.62497218091488,
        "lon": 178.72695777379593,
        "alt_km": 775.3074075464629,
        "timestamp": "2025-12-12T14:39:18.327174+00:00",
        "meta_object_name": "COSMOS 2251 DEB",
        "meta_object_id": "1993-036UQ",
        "meta_epoch": "2025-12-11T20:53:13.392960",
        "meta_mean_motion": 14.37935968,
        "meta_eccentricity": 0.002295,
        "meta_inclination": 74.0386,
        "meta_ra_of_asc_node": 300.592,
        "meta_arg_of_pericenter": 3.1494,
        "meta_mean_anomaly": 27.0274,
        "meta_ephemeris_type": 0,
        "meta_classification_type": "U",
        "meta_norad_cat_id": 34554,
        "meta_element_set_no": 999,
        "meta_rev_at_epoch": 87743,
        "meta_bstar": 0.00056325,
        "meta_mean_motion_dot": 1.681e-05,
        "meta_mean_motion_ddot": 0,
        "tle_line1": "1 34554U 93036UQ  25345.87029390  .00001681  00000+0  56325-3 0  9998",
        "tle_line2": "2 34554  74.0386 300.5920 0022950   3.1494  27.0274 14.37935968877435"
      },
      "geometry": {
        "type": "Point",
        "coordinates": [
          178.72695777379593,
          -71.62497218091488
        ]
      }
    },
    {
      "type": "Feature",
      "properties": {
        "norad_id": 34556,
        "name": "COSMOS 2251 DEB",
        "group": "cosmos-2251-debris",
        "lat": 38.96024926777585,
        "lon": 138.51231746308878,
        "alt_km": 637.4877743554252,
        "timestamp": "2025-12-12T14:39:18.327183+00:00",
        "meta_object_name": "COSMOS 2251 DEB",
        "meta_object_id": "1993-036US",
        "meta_epoch": "2025-12-11T15:46:46.515648",
        "meta_mean_motion": 14.77747642,
        "meta_eccentricity": 0.00078788,
        "meta_inclination": 74.0159,
        "meta_ra_of_asc_node": 126.9824,
        "meta_arg_of_pericenter": 187.1045,
        "meta_mean_anomaly": 185.2844,
        "meta_ephemeris_type": 0,
        "meta_classification_type": "U",
        "meta_norad_cat_id": 34556,
        "meta_element_set_no": 999,
        "meta_rev_at_epoch": 88313,
        "meta_bstar": 0.0034463135,
        "meta_mean_motion_dot": 0.00024795,
        "meta_mean_motion_ddot": 0,
        "tle_line1": "1 34556U 93036US  25345.65748282  .00024795  00000+0  34463-2 0  9993",
        "tle_line2": "2 34556  74.0159 126.9824 0007878 187.1045 185.2844 14.77747642883133"
      },
      "geometry": {
        "type": "Point",
        "coordinates": [
          138.51231746308878,
          38.96024926777585
        ]
      }
    },
    {
      "type": "Feature",
      "properties": {
        "norad_id": 34560,
        "name": "COSMOS 2251 DEB",
        "group": "cosmos-2251-debris",
        "lat": -58.77165460648253,
        "lon": 114.172136254186,
        "alt_km": 658.1045807299188,
        "timestamp": "2025-12-12T14:39:18.327192+00:00",
        "meta_object_name": "COSMOS 2251 DEB",
        "meta_object_id": "1993-036UW",
        "meta_epoch": "2025-12-11T19:56:42.891936",
        "meta_mean_motion": 14.72099094,
        "meta_eccentricity": 0.00146847,
        "meta_inclination": 74.0167,
        "meta_ra_of_asc_node": 143.9021,
        "meta_arg_of_pericenter": 225.3472,
        "meta_mean_anomaly": 261.9903,
        "meta_ephemeris_type": 0,
        "meta_classification_type": "U",
        "meta_norad_cat_id": 34560,
        "meta_element_set_no": 999,
        "meta_rev_at_epoch": 88238,
        "meta_bstar": 0.0034589559,
        "meta_mean_motion_dot": 0.0002184,
        "meta_mean_motion_ddot": 0,
        "tle_line1": "1 34560U 93036UW  25345.83105199  .00021840  00000+0  34590-2 0  9991",
        "tle_line2": "2 34560  74.0167 143.9021 0014684 225.3472 261.9903 14.72099094882387"
      },
      "geometry": {
        "type": "Point",
        "coordinates": [
          114.172136254186,
          -58.77165460648253
        ]
      }
    },
    {
      "type": "Feature",
      "properties": {
        "norad_id": 34563,
        "name": "COSMOS 2251 DEB",
        "group": "cosmos-2251-debris",
        "lat": 67.62949251646238,
        "lon": -111.98833516280823,
        "alt_km": 737.2942628721103,
        "timestamp": "2025-12-12T14:39:18.327201+00:00",
        "meta_object_name": "COSMOS 2251 DEB",
        "meta_object_id": "1993-036UZ",
        "meta_epoch": "2025-12-12T01:44:17.026656",
        "meta_mean_motion": 14.46506918,
        "meta_eccentricity": 0.0013895,
        "meta_inclination": 74.0377,
        "meta_ra_of_asc_node": 204.954,
        "meta_arg_of_pericenter": 298.8498,
        "meta_mean_anomaly": 213.6471,
        "meta_ephemeris_type": 0,
        "meta_classification_type": "U",
        "meta_norad_cat_id": 34563,
        "meta_element_set_no": 999,
        "meta_rev_at_epoch": 88187,
        "meta_bstar": 0.00069451254,
        "meta_mean_motion_dot": 2.477e-05,
        "meta_mean_motion_ddot": 0,
        "tle_line1": "1 34563U 93036UZ  25346.07241929  .00002477  00000+0  69451-3 0  9993",
        "tle_line2": "2 34563  74.0377 204.9540 0013895 298.8498 213.6471 14.46506918881879"
      },
      "geometry": {
        "type": "Point",
        "coordinates": [
          -111.98833516280823,
          67.62949251646238
        ]
      }
    },
    {
      "type": "Feature",
      "properties": {
        "norad_id": 34564,
        "name": "COSMOS 2251 DEB",
        "group": "cosmos-2251-debris",
        "lat": -33.97085917104063,
        "lon": 69.37347712749641,
        "alt_km": 770.1449693821469,
        "timestamp": "2025-12-12T14:39:18.327210+00:00",
        "meta_object_name": "COSMOS 2251 DEB",
        "meta_object_id": "1993-036VA",
        "meta_epoch": "2025-12-12T04:22:21.006912",
        "meta_mean_motion": 14.40688498,
        "meta_eccentricity": 0.00190064,
        "meta_inclination": 74.0325,
        "meta_ra_of_asc_node": 239.0431,
        "meta_arg_of_pericenter": 343.0333,
        "meta_mean_anomaly": 171.374,
        "meta_ephemeris_type": 0,
        "meta_classification_type": "U",
        "meta_norad_cat_id": 34564,
        "meta_element_set_no": 999,
        "meta_rev_at_epoch": 87998,
        "meta_bstar": 0.00038442813,
        "meta_mean_motion_dot": 1.204e-05,
        "meta_mean_motion_ddot": 0,
        "tle_line1": "1 34564U 93036VA  25346.18218758  .00001204  00000+0  38443-3 0  9994",
        "tle_line2": "2 34564  74.0325 239.0431 0019006 343.0333 171.3740 14.40688498879988"
      },
      "geometry": {
        "type": "Point",
        "coordinates": [
          69.37347712749641,
          -33.97085917104063
        ]
      }
    },
    {
      "type": "Feature",
      "properties": {
        "norad_id": 34567,
        "name": "COSMOS 2251 DEB",
        "group": "cosmos-2251-debris",
        "lat": -74.02994176245083,
        "lon": 66.66913879474534,
        "alt_km": 776.7629613887202,
        "timestamp": "2025-12-12T14:39:18.327219+00:00",
        "meta_object_name": "COSMOS 2251 DEB",
        "meta_object_id": "1993-036VD",
        "meta_epoch": "2025-12-11T22:48:25.333344",
        "meta_mean_motion": 14.24015105,
        "meta_eccentricity": 0.0074476,
        "meta_inclination": 74.0399,
        "meta_ra_of_asc_node": 158.2009,
        "meta_arg_of_pericenter": 232.644,
        "meta_mean_anomaly": 252.8964,
        "meta_ephemeris_type": 0,
        "meta_classification_type": "U",
        "meta_norad_cat_id": 34567,
        "meta_element_set_no": 999,
        "meta_rev_at_epoch": 87113,
        "meta_bstar": 0.00033899,
        "meta_mean_motion_dot": 7.75e-06,
        "meta_mean_motion_ddot": 0,
        "tle_line1": "1 34567U 93036VD  25345.95029321  .00000775  00000+0  33899-3 0  9999",
        "tle_line2": "2 34567  74.0399 158.2009 0074476 232.6440 252.8964 14.24015105871132"
      },
      "geometry": {
        "type": "Point",
        "coordinates": [
          66.66913879474534,
          -74.02994176245083
        ]
      }
    },
    {
      "type": "Feature",
      "properties": {
        "norad_id": 34569,
        "name": "COSMOS 2251 DEB",
        "group": "cosmos-2251-debris",
        "lat": 69.24089576093127,
        "lon": -112.38923673488172,
        "alt_km": 728.3415941543199,
        "timestamp": "2025-12-12T14:39:18.327229+00:00",
        "meta_object_name": "COSMOS 2251 DEB",
        "meta_object_id": "1993-036VF",
        "meta_epoch": "2025-12-11T14:51:14.626656",
        "meta_mean_motion": 14.24748288,
        "meta_eccentricity": 0.01572567,
        "meta_inclination": 73.9903,
        "meta_ra_of_asc_node": 200.1629,
        "meta_arg_of_pericenter": 28.8066,
        "meta_mean_anomaly": 1.9109,
        "meta_ephemeris_type": 0,
        "meta_classification_type": "U",
        "meta_norad_cat_id": 34569,
        "meta_element_set_no": 999,
        "meta_rev_at_epoch": 86952,
        "meta_bstar": 0.00071468017,
        "meta_mean_motion_dot": 1.868e-05,
        "meta_mean_motion_ddot": 0,
        "tle_line1": "1 34569U 93036VF  25345.61891929  .00001868  00000+0  71468-3 0  9993",
        "tle_line2": "2 34569  73.9903 200.1629 0157256  28.8066   1.9109 14.24748288869524"
      },
      "geometry": {
        "type": "Point",
        "coordinates": [
          -112.38923673488172,
          69.24089576093127
        ]
      }
    }
  ]
}